CTC1_L_00341001-01
1 28526U 24183UP  26070.40835648  .00000000  00000+0  00000-0 0  9993
2 28526  65.0000   0.0000 0000000   0.0000   0.0000 13.81096544    18
CTC1_L_00341001-02
1 28527U 23457DH  26070.40835648  .00000000  00000+0  00000-0 0  9997
2 28527  65.0000   0.0000 0000000   0.0000  90.0000 13.81096544    18
CTC1_L_00341001-03
1 28528U 22192PO  26070.40835648  .00000000  00000+0  00000-0 0  9993
2 28528  65.0000   0.0000 0000000   0.0000 180.0000 13.81096544    19
CTC1_L_00341001-04
1 28529U 23512UN  26070.40835648  .00000000  00000+0  00000-0 0  9991
2 28529  65.0000   0.0000 0000000   0.0000 270.0000 13.81096544    10
CTC1_L_00341002-01
1 28530U 22540RY  26070.40835648  .00000000  00000+0  00000-0 0  9993
2 28530  65.0000  12.0000 0000000   0.0000  12.0000 13.81096544    19
CTC1_L_00341002-02
1 28531U 24216PC  26070.40835648  .00000000  00000+0  00000-0 0  9996
2 28531  65.0000  12.0000 0000000   0.0000 102.0000 13.81096544    10
CTC1_L_00341002-03
1 28532U 24524AX  26070.40835648  .00000000  00000+0  00000-0 0  9999
2 28532  65.0000  12.0000 0000000   0.0000 192.0000 13.81096544    10
CTC1_L_00341002-04
1 28533U 23474YB  26070.40835648  .00000000  00000+0  00000-0 0  9993
2 28533  65.0000  12.0000 0000000   0.0000 282.0000 13.81096544    11
CTC1_L_00341003-01
1 28534U 24263UE  26070.40835648  .00000000  00000+0  00000-0 0  9991
2 28534  65.0000  24.0000 0000000   0.0000  24.0000 13.81096544    19
CTC1_L_00341003-02
1 28535U 22326RT  26070.40835648  .00000000  00000+0  00000-0 0  9990
2 28535  65.0000  24.0000 0000000   0.0000 114.0000 13.81096544    10
CTC1_L_00341003-03
1 28536U 26911SY  26070.40835648  .00000000  00000+0  00000-0 0  9995
2 28536  65.0000  24.0000 0000000   0.0000 204.0000 13.81096544    11
CTC1_L_00341003-04
1 28537U 22117TK  26070.40835648  .00000000  00000+0  00000-0 0  9990
2 28537  65.0000  24.0000 0000000   0.0000 294.0000 13.81096544    11
CTC1_L_00341004-01
1 28538U 24083XJ  26070.40835648  .00000000  00000+0  00000-0 0  9995
2 28538  65.0000  36.0000 0000000   0.0000  36.0000 13.81096544    19
CTC1_L_00341004-02
1 28539U 24704WW  26070.40835648  .00000000  00000+0  00000-0 0  9996
2 28539  65.0000  36.0000 0000000   0.0000 126.0000 13.81096544    10
CTC1_L_00341004-03
1 28540U 26440AM  26070.40835648  .00000000  00000+0  00000-0 0  9997
2 28540  65.0000  36.0000 0000000   0.0000 216.0000 13.81096544    12
CTC1_L_00341004-04
1 28541U 26515GN  26070.40835648  .00000000  00000+0  00000-0 0  9991
2 28541  65.0000  36.0000 0000000   0.0000 306.0000 13.81096544    13
CTC1_L_00341005-01
1 28542U 25589RL  26070.40835648  .00000000  00000+0  00000-0 0  9992
2 28542  65.0000  48.0000 0000000   0.0000  48.0000 13.81096544    10
CTC1_L_00341005-02
1 28543U 24138BY  26070.40835648  .00000000  00000+0  00000-0 0  9992
2 28543  65.0000  48.0000 0000000   0.0000 138.0000 13.81096544    11
CTC1_L_00341005-03
1 28544U 24835ZR  26070.40835648  .00000000  00000+0  00000-0 0  9997
2 28544  65.0000  48.0000 0000000   0.0000 228.0000 13.81096544    12
CTC1_L_00341005-04
1 28545U 24987YX  26070.40835648  .00000000  00000+0  00000-0 0  9996
2 28545  65.0000  48.0000 0000000   0.0000 318.0000 13.81096544    13
CTC1_L_00341006-01
1 28546U 23567CH  26070.40835648  .00000000  00000+0  00000-0 0  9990
2 28546  65.0000  60.0000 0000000   0.0000  60.0000 13.81096544    12
CTC1_L_00341006-02
1 28547U 22162ER  26070.40835648  .00000000  00000+0  00000-0 0  9991
2 28547  65.0000  60.0000 0000000   0.0000 150.0000 13.81096544    13
CTC1_L_00341006-03
1 28548U 26883IW  26070.40835648  .00000000  00000+0  00000-0 0  9996
2 28548  65.0000  60.0000 0000000   0.0000 240.0000 13.81096544    14
CTC1_L_00341006-04
1 28549U 26918RI  26070.40835648  .00000000  00000+0  00000-0 0  9996
2 28549  65.0000  60.0000 0000000   0.0000 330.0000 13.81096544    15
CTC1_L_00341007-01
1 28550U 22290QE  26070.40835648  .00000000  00000+0  00000-0 0  9997
2 28550  65.0000  72.0000 0000000   0.0000  72.0000 13.81096544    13
CTC1_L_00341007-02
1 28551U 26032IY  26070.40835648  .00000000  00000+0  00000-0 0  9996
2 28551  65.0000  72.0000 0000000   0.0000 162.0000 13.81096544    14
CTC1_L_00341007-03
1 28552U 25292JL  26070.40835648  .00000000  00000+0  00000-0 0  9994
2 28552  65.0000  72.0000 0000000   0.0000 252.0000 13.81096544    15
CTC1_L_00341007-04
1 28553U 23548FZ  26070.40835648  .00000000  00000+0  00000-0 0  9997
2 28553  65.0000  72.0000 0000000   0.0000 342.0000 13.81096544    16
CTC1_L_00341008-01
1 28554U 22944OS  26070.40835648  .00000000  00000+0  00000-0 0  9997
2 28554  65.0000  84.0000 0000000   0.0000  84.0000 13.81096544    13
CTC1_L_00341008-02
1 28555U 24166XQ  26070.40835648  .00000000  00000+0  00000-0 0  9996
2 28555  65.0000  84.0000 0000000   0.0000 174.0000 13.81096544    14
CTC1_L_00341008-03
1 28556U 26681NO  26070.40835648  .00000000  00000+0  00000-0 0  9991
2 28556  65.0000  84.0000 0000000   0.0000 264.0000 13.81096544    15
CTC1_L_00341008-04
1 28557U 23737NU  26070.40835648  .00000000  00000+0  00000-0 0  9991
2 28557  65.0000  84.0000 0000000   0.0000 354.0000 13.81096544    16
CTC1_L_00341009-01
1 28558U 26039TZ  26070.40835648  .00000000  00000+0  00000-0 0  9990
2 28558  65.0000  96.0000 0000000   0.0000  96.0000 13.81096544    13
CTC1_L_00341009-02
1 28559U 26466CU  26070.40835648  .00000000  00000+0  00000-0 0  9995
2 28559  65.0000  96.0000 0000000   0.0000 186.0000 13.81096544    14
CTC1_L_00341009-03
1 28560U 24912SU  26070.40835648  .00000000  00000+0  00000-0 0  9991
2 28560  65.0000  96.0000 0000000   0.0000 276.0000 13.81096544    16
CTC1_L_00341009-04
1 28561U 25564DA  26070.40835648  .00000000  00000+0  00000-0 0  9996
2 28561  65.0000  96.0000 0000000   0.0000   6.0000 13.81096544    18
CTC1_L_00341010-01
1 28562U 26291HE  26070.40835648  .00000000  00000+0  00000-0 0  9995
2 28562  65.0000 108.0000 0000000   0.0000 108.0000 13.81096544    16
CTC1_L_00341010-02
1 28563U 22761VJ  26070.40835648  .00000000  00000+0  00000-0 0  9994
2 28563  65.0000 108.0000 0000000   0.0000 198.0000 13.81096544    16
CTC1_L_00341010-03
1 28564U 22583BE  26070.40835648  .00000000  00000+0  00000-0 0  9997
2 28564  65.0000 108.0000 0000000   0.0000 288.0000 13.81096544    17
CTC1_L_00341010-04
1 28565U 24528RX  26070.40835648  .00000000  00000+0  00000-0 0  9999
2 28565  65.0000 108.0000 0000000   0.0000  18.0000 13.81096544    19
CTC1_L_00341011-01
1 28566U 24054GO  26070.40835648  .00000000  00000+0  00000-0 0  9994
2 28566  65.0000 120.0000 0000000   0.0000 120.0000 13.81096544    18
CTC1_L_00341011-02
1 28567U 24164HA  26070.40835648  .00000000  00000+0  00000-0 0  9997
2 28567  65.0000 120.0000 0000000   0.0000 210.0000 13.81096544    19
CTC1_L_00341011-03
1 28568U 26939QA  26070.40835648  .00000000  00000+0  00000-0 0  9990
2 28568  65.0000 120.0000 0000000   0.0000 300.0000 13.81096544    10
CTC1_L_00341011-04
1 28569U 23290LL  26070.40835648  .00000000  00000+0  00000-0 0  9998
2 28569  65.0000 120.0000 0000000   0.0000  30.0000 13.81096544    11
CTC1_L_00341012-01
1 28570U 23659NB  26070.40835648  .00000000  00000+0  00000-0 0  9999
2 28570  65.0000 132.0000 0000000   0.0000 132.0000 13.81096544    19
CTC1_L_00341012-02
1 28571U 26024GK  26070.40835648  .00000000  00000+0  00000-0 0  9999
2 28571  65.0000 132.0000 0000000   0.0000 222.0000 13.81096544    10
CTC1_L_00341012-03
1 28572U 22872ZJ  26070.40835648  .00000000  00000+0  00000-0 0  9997
2 28572  65.0000 132.0000 0000000   0.0000 312.0000 13.81096544    11
CTC1_L_00341012-04
1 28573U 26271EY  26070.40835648  .00000000  00000+0  00000-0 0  9995
2 28573  65.0000 132.0000 0000000   0.0000  42.0000 13.81096544    12
CTC1_L_00341013-01
1 28574U 24357EC  26070.40835648  .00000000  00000+0  00000-0 0  9999
2 28574  65.0000 144.0000 0000000   0.0000 144.0000 13.81096544    19
CTC1_L_00341013-02
1 28575U 22522XG  26070.40835648  .00000000  00000+0  00000-0 0  9992
2 28575  65.0000 144.0000 0000000   0.0000 234.0000 13.81096544    10
CTC1_L_00341013-03
1 28576U 23746OJ  26070.40835648  .00000000  00000+0  00000-0 0  9992
2 28576  65.0000 144.0000 0000000   0.0000 324.0000 13.81096544    11
CTC1_L_00341013-04
1 28577U 22858ZK  26070.40835648  .00000000  00000+0  00000-0 0  9996
2 28577  65.0000 144.0000 0000000   0.0000  54.0000 13.81096544    12
CTC1_L_00341014-01
1 28578U 22309RA  26070.40835648  .00000000  00000+0  00000-0 0  9998
2 28578  65.0000 156.0000 0000000   0.0000 156.0000 13.81096544    19
CTC1_L_00341014-02
1 28579U 22694HY  26070.40835648  .00000000  00000+0  00000-0 0  9996
2 28579  65.0000 156.0000 0000000   0.0000 246.0000 13.81096544    10
CTC1_L_00341014-03
1 28580U 25101MH  26070.40835648  .00000000  00000+0  00000-0 0  9994
2 28580  65.0000 156.0000 0000000   0.0000 336.0000 13.81096544    12
CTC1_L_00341014-04
1 28581U 24892NE  26070.40835648  .00000000  00000+0  00000-0 0  9991
2 28581  65.0000 156.0000 0000000   0.0000  66.0000 13.81096544    13
CTC1_L_00341015-01
1 28582U 25694FR  26070.40835648  .00000000  00000+0  00000-0 0  9993
2 28582  65.0000 168.0000 0000000   0.0000 168.0000 13.81096544    10
CTC1_L_00341015-02
1 28583U 23311P   26070.40835648  .00000000  00000+0  00000-0 0  9998
2 28583  65.0000 168.0000 0000000   0.0000 258.0000 13.81096544    11
CTC1_L_00341015-03
1 28584U 24396ON  26070.40835648  .00000000  00000+0  00000-0 0  9993
2 28584  65.0000 168.0000 0000000   0.0000 348.0000 13.81096544    12
CTC1_L_00341015-04
1 28585U 23140OD  26070.40835648  .00000000  00000+0  00000-0 0  9990
2 28585  65.0000 168.0000 0000000   0.0000  78.0000 13.81096544    13
CTC1_L_00341016-01
1 28586U 26153MX  26070.40835648  .00000000  00000+0  00000-0 0  9998
2 28586  65.0000 180.0000 0000000   0.0000 180.0000 13.81096544    12
CTC1_L_00341016-02
1 28587U 26958GY  26070.40835648  .00000000  00000+0  00000-0 0  9992
2 28587  65.0000 180.0000 0000000   0.0000 270.0000 13.81096544    13
